{
  "type": "FeatureCollection",
  "features": [
    {
      "type": "Feature",
      "properties": {
        "norad_id": 30760,
        "name": "FENGYUN 1C DEB",
        "group": "fengyun-1c-debris",
        "lat": 6.812830194607278,
        "lon": 178.77944114824044,
        "alt_km": 901.5492165518608,
        "timestamp": "2025-12-27T10:28:59.073169+00:00",
        "meta_object_name": "FENGYUN 1C DEB",
        "meta_object_id": "1999-025ATW",
        "meta_epoch": "2025-12-26T23:24:16.168032",
        "meta_mean_motion": 14.05193324,
        "meta_eccentricity": 0.0052227,
        "meta_inclination": 98.823,
        "meta_ra_of_asc_node": 357.2672,
        "meta_arg_of_pericenter": 303.2762,
        "meta_mean_anomaly": 56.3408,
        "meta_ephemeris_type": 0,
        "meta_classification_type": "U",
        "meta_norad_cat_id": 30760,
        "meta_element_set_no": 999,
        "meta_rev_at_epoch": 96422,
        "meta_bstar": 0.00023804,
        "meta_mean_motion_dot": 3.46e-06,
        "meta_mean_motion_ddot": 0,
        "tle_line1": "1 30760U 99025ATW 25360.97518713  .00000346  00000+0  23804-3 0  9990",
        "tle_line2": "2 30760  98.8230 357.2672 0052227 303.2762  56.3408 14.05193324964222"
      },
      "geometry": {
        "type": "Point",
        "coordinates": [
          178.77944114824044,
          6.812830194607278
        ]
      }
    },
    {
      "type": "Feature",
      "properties": {
        "norad_id": 30761,
        "name": "FENGYUN 1C DEB",
        "group": "fengyun-1c-debris",
        "lat": 75.5530060157856,
        "lon": 145.90535396630375,
        "alt_km": 823.7213995938837,
        "timestamp": "2025-12-27T10:28:59.073179+00:00",
        "meta_object_name": "FENGYUN 1C DEB",
        "meta_object_id": "1999-025ATX",
        "meta_epoch": "2025-12-26T12:15:57.555648",
        "meta_mean_motion": 14.35854031,
        "meta_eccentricity": 0.0083614,
        "meta_inclination": 98.9666,
        "meta_ra_of_asc_node": 287.1472,
        "meta_arg_of_pericenter": 273.2267,
        "meta_mean_anomaly": 85.9354,
        "meta_ephemeris_type": 0,
        "meta_classification_type": "U",
        "meta_norad_cat_id": 30761,
        "meta_element_set_no": 999,
        "meta_rev_at_epoch": 97939,
        "meta_bstar": 0.001036,
        "meta_mean_motion_dot": 3.075e-05,
        "meta_mean_motion_ddot": 0,
        "tle_line1": "1 30761U 99025ATX 25360.51108282  .00003075  00000+0  10360-2 0  9991",
        "tle_line2": "2 30761  98.9666 287.1472 0083614 273.2267  85.9354 14.35854031979390"
      },
      "geometry": {
        "type": "Point",
        "coordinates": [
          145.90535396630375,
          75.5530060157856
        ]
      }
    },
    {
      "type": "Feature",
      "properties": {
        "norad_id": 30762,
        "name": "FENGYUN 1C DEB",
        "group": "fengyun-1c-debris",
        "lat": 77.8741546569941,
        "lon": -54.91187669653322,
        "alt_km": 1035.402842612899,
        "timestamp": "2025-12-27T10:28:59.073189+00:00",
        "meta_object_name": "FENGYUN 1C DEB",
        "meta_object_id": "1999-025ATY",
        "meta_epoch": "2025-12-24T17:41:52.326816",
        "meta_mean_motion": 13.98113979,
        "meta_eccentricity": 0.01973022,
        "meta_inclination": 98.8763,
        "meta_ra_of_asc_node": 349.1388,
        "meta_arg_of_pericenter": 261.87,
        "meta_mean_anomaly": 281.0282,
        "meta_ephemeris_type": 0,
        "meta_classification_type": "U",
        "meta_norad_cat_id": 30762,
        "meta_element_set_no": 999,
        "meta_rev_at_epoch": 95805,
        "meta_bstar": 0.00050242304,
        "meta_mean_motion_dot": 7.99e-06,
        "meta_mean_motion_ddot": 0,
        "tle_line1": "1 30762U 99025ATY 25358.73741119  .00000799  00000+0  50242-3 0  9999",
        "tle_line2": "2 30762  98.8763 349.1388 0197302 261.8700 281.0282 13.98113979958054"
      },
      "geometry": {
        "type": "Point",
        "coordinates": [
          -54.91187669653322,
          77.8741546569941
        ]
      }
    },
    {
      "type": "Feature",
      "properties": {
        "norad_id": 30763,
        "name": "FENGYUN 1C DEB",
        "group": "fengyun-1c-debris",
        "lat": 60.82881897681889,
        "lon": 57.606919533046494,
        "alt_km": 698.5425254344309,
        "timestamp": "2025-12-27T10:28:59.073200+00:00",
        "meta_object_name": "FENGYUN 1C DEB",
        "meta_object_id": "1999-025ATZ",
        "meta_epoch": "2025-12-26T21:19:27.283008",
        "meta_mean_motion": 14.61656597,
        "meta_eccentricity": 0.0024615,
        "meta_inclination": 98.8918,
        "meta_ra_of_asc_node": 73.3048,
        "meta_arg_of_pericenter": 228.1695,
        "meta_mean_anomaly": 190.6604,
        "meta_ephemeris_type": 0,
        "meta_classification_type": "U",
        "meta_norad_cat_id": 30763,
        "meta_element_set_no": 999,
        "meta_rev_at_epoch": 97351,
        "meta_bstar": 0.0052589,
        "meta_mean_motion_dot": 0.00026325,
        "meta_mean_motion_ddot": 0,
        "tle_line1": "1 30763U 99025ATZ 25360.88851022  .00026325  00000+0  52589-2 0  9992",
        "tle_line2": "2 30763  98.8918  73.3048 0024615 228.1695 190.6604 14.61656597973511"
      },
      "geometry": {
        "type": "Point",
        "coordinates": [
          57.606919533046494,
          60.82881897681889
        ]
      }
    },
    {
      "type": "Feature",
      "properties": {
        "norad_id": 30764,
        "name": "FENGYUN 1C DEB",
        "group": "fengyun-1c-debris",
        "lat": -65.73216507082456,
        "lon": -5.211350917922761,
        "alt_km": 535.0374773629601,
        "timestamp": "2025-12-27T10:28:59.073209+00:00",
        "meta_object_name": "FENGYUN 1C DEB",
        "meta_object_id": "1999-025AUA",
        "meta_epoch": "2025-12-27T04:30:07.616160",
        "meta_mean_motion": 15.2998236,
        "meta_eccentricity": 0.0076565,
        "meta_inclination": 98.7805,
        "meta_ra_of_asc_node": 334.4442,
        "meta_arg_of_pericenter": 121.1646,
        "meta_mean_anomaly": 239.7127,
        "meta_ephemeris_type": 0,
        "meta_classification_type": "U",
        "meta_norad_cat_id": 30764,
        "meta_element_set_no": 999,
        "meta_rev_at_epoch": 1443,
        "meta_bstar": 0.0012236,
        "meta_mean_motion_dot": 0.00038908,
        "meta_mean_motion_ddot": 0,
        "tle_line1": "1 30764U 99025AUA 25361.18758815  .00038908  00000+0  12236-2 0  9998",
        "tle_line2": "2 30764  98.7805 334.4442 0076565 121.1646 239.7127 15.29982360 14431"
      },
      "geometry": {
        "type": "Point",
        "coordinates": [
          -5.211350917922761,
          -65.73216507082456
        ]
      }
    },
    {
      "type": "Feature",
      "properties": {
        "norad_id": 30765,
        "name": "FENGYUN 1C DEB",
        "group": "fengyun-1c-debris",
        "lat": 70.79056575372825,
        "lon": 20.851159601030368,
        "alt_km": 840.0325023600462,
        "timestamp": "2025-12-27T10:28:59.073220+00:00",
        "meta_object_name": "FENGYUN 1C DEB",
        "meta_object_id": "1999-025AUB",
        "meta_epoch": "2025-12-26T14:29:48.482304",
        "meta_mean_motion": 14.14753615,
        "meta_eccentricity": 0.0068784,
        "meta_inclination": 98.7868,
        "meta_ra_of_asc_node": 46.3856,
        "meta_arg_of_pericenter": 169.9958,
        "meta_mean_anomaly": 344.6948,
        "meta_ephemeris_type": 0,
        "meta_classification_type": "U",
        "meta_norad_cat_id": 30765,
        "meta_element_set_no": 999,
        "meta_rev_at_epoch": 97018,
        "meta_bstar": 0.00079387,
        "meta_mean_motion_dot": 1.521e-05,
        "meta_mean_motion_ddot": 0,
        "tle_line1": "1 30765U 99025AUB 25360.60403336  .00001521  00000+0  79387-3 0  9992",
        "tle_line2": "2 30765  98.7868  46.3856 0068784 169.9958 344.6948 14.14753615970181"
      },
      "geometry": {
        "type": "Point",
        "coordinates": [
          20.851159601030368,
          70.79056575372825
        ]
      }
    },
    {
      "type": "Feature",
      "properties": {
        "norad_id": 30766,
        "name": "FENGYUN 1C DEB",
        "group": "fengyun-1c-debris",
        "lat": 36.1738227104546,
        "lon": -5.119696646406436,
        "alt_km": 798.0401308397486,
        "timestamp": "2025-12-27T10:28:59.073230+00:00",
        "meta_object_name": "FENGYUN 1C DEB",
        "meta_object_id": "1999-025AUC",
        "meta_epoch": "2025-12-26T18:06:52.091712",
        "meta_mean_motion": 14.0956431,
        "meta_eccentricity": 0.00833705,
        "meta_inclination": 98.6728,
        "meta_ra_of_asc_node": 0.631,
        "meta_arg_of_pericenter": 35.0601,
        "meta_mean_anomaly": 142.6697,
        "meta_ephemeris_type": 0,
        "meta_classification_type": "U",
        "meta_norad_cat_id": 30766,
        "meta_element_set_no": 999,
        "meta_rev_at_epoch": 62994,
        "meta_bstar": 0.00080210776,
        "meta_mean_motion_dot": 1.408e-05,
        "meta_mean_motion_ddot": 0,
        "tle_line1": "1 30766U 99025AUC 25360.75476958  .00001408  00000+0  80211-3 0  9991",
        "tle_line2": "2 30766  98.6728   0.6310 0083370  35.0601 142.6697 14.09564310629948"
      },
      "geometry": {
        "type": "Point",
        "coordinates": [
          -5.119696646406436,
          36.1738227104546
        ]
      }
    }
  ]
}